{"type": "FeatureCollection", "features": [ {"type": "Feature", "properties": {"norad_id": 30357, "name": "FENGYUN 1C DEB", "group": "fengyun-1c-debris", "lat": -39.74109096074083, "lon": 177.10664008818082, "alt_km": 908.3589544406823, "timestamp": "2025-12-02T23:34:15.792222+00:00", "meta": {"OBJECT_NAME": "FENGYUN 1C DEB", "OBJECT_ID": "1999-025ABU", "EPOCH": "2025-12-02T02:20:36.555648", "MEAN_MOTION": 14.05254142, "ECCENTRICITY": 0.00493101, "INCLINATION": 98.8074, "RA_OF_ASC_NODE": 3.6539, "ARG_OF_PERICENTER": 0.1302, "MEAN_ANOMALY": 68.4302, "EPHEMERIS_TYPE": 0, "CLASSIFICATION_TYPE": "U", "NORAD_CAT_ID": 30357, "ELEMENT_SET_NO": 999, "REV_AT_EPOCH": 96657, "BSTAR": 0.00030776588, "MEAN_MOTION_DOT": 4.6e-06, "MEAN_MOTION_DDOT": 0}, "tle": {"line1": "1 30357U 99025ABU 25336.09764532  .00000460  00000+0  30777-3 0  9994", "line2": "2 30357  98.8074   3.6539 0049310   0.1302  68.4302 14.05254142966579"}}, "geometry": {"type": "Point", "coordinates": [177.10664008818082, -39.74109096074083]}}, {"type": "Feature", "properties": {"norad_id": 30358, "name": "FENGYUN 1C DEB", "group": "fengyun-1c-debris", "lat": 71.25815232008553, "lon": 140.0721086193552, "alt_km": 870.5218067602054, "timestamp": "2025-12-02T23:34:15.792233+00:00", "meta": {"OBJECT_NAME": "FENGYUN 1C DEB", "OBJECT_ID": "1999-025ABV", "EPOCH": "2025-12-02T11:31:52.002336", "MEAN_MOTION": 14.20535225, "ECCENTRICITY": 0.0082959, "INCLINATION": 98.5542, "RA_OF_ASC_NODE": 165.921, "ARG_OF_PERICENTER": 229.375, "MEAN_ANOMALY": 160.3033, "EPHEMERIS_TYPE": 0, "CLASSIFICATION_TYPE": "U", "NORAD_CAT_ID": 30358, "ELEMENT_SET_NO": 999, "REV_AT_EPOCH": 96772, "BSTAR": 0.0023493, "MEAN_MOTION_DOT": 5.186e-05, "MEAN_MOTION_DDOT": 0}, "tle": {"line1": "1 30358U 99025ABV 25336.48046299  .00005186  00000+0  23493-2 0  9997", "line2": "2 30358  98.5542 165.9210 0082959 229.3750 160.3033 14.20535225967725"}}, "geometry": {"type": "Point", "coordinates": [140.0721086193552, 71.25815232008553]}}, {"type": "Feature", "properties": {"norad_id": 30359, "name": "FENGYUN 1C DEB", "group": "fengyun-1c-debris", "lat": -52.914174507612714, "lon": 175.99586353106446, "alt_km": 869.7436301807475, "timestamp": "2025-12-02T23:34:15.792243+00:00", "meta": {"OBJECT_NAME": "FENGYUN 1C DEB", "OBJECT_ID": "1999-025ABW", "EPOCH": "2025-12-02T01:25:55.604640", "MEAN_MOTION": 13.93891973, "ECCENTRICITY": 0.01446261, "INCLINATION": 101.6279, "RA_OF_ASC_NODE": 159.0313, "ARG_OF_PERICENTER": 8.9685, "MEAN_ANOMALY": 351.4001, "EPHEMERIS_TYPE": 0, "CLASSIFICATION_TYPE": "U", "NORAD_CAT_ID": 30359, "ELEMENT_SET_NO": 999, "REV_AT_EPOCH": 94920, "BSTAR": 0.00252898, "MEAN_MOTION_DOT": 3.577e-05, "MEAN_MOTION_DDOT": 0}, "tle": {"line1": "1 30359U 99025ABW 25336.05967135  .00003577  00000+0  25290-2 0  9991", "line2": "2 30359 101.6279 159.0313 0144626   8.9685 351.4001 13.93891973949200"}}, "geometry": {"type": "Point", "coordinates": [175.99586353106446, -52.914174507612714]}}, {"type": "Feature", "properties": {"norad_id": 30360, "name": "FENGYUN 1C DEB", "group": "fengyun-1c-debris", "lat": -77.78869169551761, "lon": -178.91361941500642, "alt_km": 810.3489259454582, "timestamp": "2025-12-02T23:34:15.792254+00:00", "meta": {"OBJECT_NAME": "FENGYUN 1C DEB", "OBJECT_ID": "1999-025ABX", "EPOCH": "2025-12-02T04:05:24.796032", "MEAN_MOTION": 14.26369056, "ECCENTRICITY": 0.00316423, "INCLINATION": 98.7672, "RA_OF_ASC_NODE": 45.7601, "ARG_OF_PERICENTER": 175.724, "MEAN_ANOMALY": 239.6856, "EPHEMERIS_TYPE": 0, "CLASSIFICATION_TYPE": "U", "NORAD_CAT_ID": 30360, "ELEMENT_SET_NO": 999, "REV_AT_EPOCH": 97274, "BSTAR": 0.0019278527, "MEAN_MOTION_DOT": 4.616e-05, "MEAN_MOTION_DDOT": 0}, "tle": {"line1": "1 30360U 99025ABX 25336.17042588  .00004616  00000+0  19279-2 0  9997", "line2": "2 30360  98.7672  45.7601 0031642 175.7240 239.6856 14.26369056972748"}}, "geometry": {"type": "Point", "coordinates": [-178.91361941500642, -77.78869169551761]}}, {"type": "Feature", "properties": {"norad_id": 30361, "name": "FENGYUN 1C DEB", "group": "fengyun-1c-debris", "lat": 40.42912646545068, "lon": 5.754311414847731, "alt_km": 759.2881550683887, "timestamp": "2025-12-02T23:34:15.792264+00:00", "meta": {"OBJECT_NAME": "FENGYUN 1C DEB", "OBJECT_ID": "1999-025ABY", "EPOCH": "2025-12-02T08:13:04.588608", "MEAN_MOTION": 14.25286148, "ECCENTRICITY": 0.0065893, "INCLINATION": 98.5705, "RA_OF_ASC_NODE": 12.511, "ARG_OF_PERICENTER": 61.1278, "MEAN_ANOMALY": 299.6493, "EPHEMERIS_TYPE": 0, "CLASSIFICATION_TYPE": "U", "NORAD_CAT_ID": 30361, "ELEMENT_SET_NO": 999, "REV_AT_EPOCH": 97468, "BSTAR": 0.0011461, "MEAN_MOTION_DOT": 2.717e-05, "MEAN_MOTION_DDOT": 0}, "tle": {"line1": "1 30361U 99025ABY 25336.34241422  .00002717  00000+0  11461-2 0  9990", "line2": "2 30361  98.5705  12.5110 0065893  61.1278 299.6493 14.25286148974682"}}, "geometry": {"type": "Point", "coordinates": [5.754311414847731, 40.42912646545068]}}, {"type": "Feature", "properties": {"norad_id": 30362, "name": "FENGYUN 1C DEB", "group": "fengyun-1c-debris", "lat": 16.90776872742286, "lon": 82.47608415840959, "alt_km": 915.6925830944838, "timestamp": "2025-12-02T23:34:15.792275+00:00", "meta": {"OBJECT_NAME": "FENGYUN 1C DEB", "OBJECT_ID": "1999-025ABZ", "EPOCH": "2025-12-02T07:29:47.346720", "MEAN_MOTION": 14.11659558, "ECCENTRICITY": 0.0096338, "INCLINATION": 99.0502, "RA_OF_ASC_NODE": 259.0237, "ARG_OF_PERICENTER": 12.3187, "MEAN_ANOMALY": 348.0307, "EPHEMERIS_TYPE": 0, "CLASSIFICATION_TYPE": "U", "NORAD_CAT_ID": 30362, "ELEMENT_SET_NO": 999, "REV_AT_EPOCH": 96021, "BSTAR": 0.0033063, "MEAN_MOTION_DOT": 6.241e-05, "MEAN_MOTION_DDOT": 0}, "tle": {"line1": "1 30362U 99025ABZ 25336.31235355  .00006241  00000+0  33063-2 0  9994", "line2": "2 30362  99.0502 259.0237 0096338  12.3187 348.0307 14.11659558960218"}}, "geometry": {"type": "Point", "coordinates": [82.47608415840959, 16.90776872742286]}}, {"type": "Feature", "properties": {"norad_id": 30363, "name": "FENGYUN 1C DEB", "group": "fengyun-1c-debris", "lat": -56.756712625533254, "lon": -146.07132167004184, "alt_km": 900.3539540771271, "timestamp": "2025-12-02T23:34:15.792285+00:00", "meta": {"OBJECT_NAME": "FENGYUN 1C DEB", "OBJECT_ID": "1999-025ACA", "EPOCH": "2025-12-02T03:48:45.449568", "MEAN_MOTION": 14.16778997, "ECCENTRICITY": 0.00802669, "INCLINATION": 99.0313, "RA_OF_ASC_NODE": 47.136, "ARG_OF_PERICENTER": 69.8217, "MEAN_ANOMALY": 291.1567, "EPHEMERIS_TYPE": 0, "CLASSIFICATION_TYPE": "U", "NORAD_CAT_ID": 30363, "ELEMENT_SET_NO": 999, "REV_AT_EPOCH": 96674, "BSTAR": 0.0015771663, "MEAN_MOTION_DOT": 3.213e-05, "MEAN_MOTION_DDOT": 0}, "tle": {"line1": "1 30363U 99025ACA 25336.15885937  .00003213  00000+0  15772-2 0  9997", "line2": "2 30363  99.0313  47.1360 0080266  69.8217 291.1567 14.16778997966740"}}, "geometry": {"type": "Point", "coordinates": [-146.07132167004184, -56.756712625533254]}}, {"type": "Feature", "properties": {"norad_id": 30364, "name": "FENGYUN 1C DEB", "group": "fengyun-1c-debris", "lat": -2.7853205084640567, "lon": -105.47043836102202, "alt_km": 600.941795261675, "timestamp": "2025-12-02T23:34:15.792295+00:00", "meta": {"OBJECT_NAME": "FENGYUN 1C DEB", "OBJECT_ID": "1999-025ACB", "EPOCH": "2025-12-01T12:50:41.724960", "MEAN_MOTION": 14.16673291, "ECCENTRICITY": 0.03345489, "INCLINATION": 98.1359, "RA_OF_ASC_NODE": 252.8044, "ARG_OF_PERICENTER": 352.9961, "MEAN_ANOMALY": 188.5388, "EPHEMERIS_TYPE": 0, "CLASSIFICATION_TYPE": "U", "NORAD_CAT_ID": 30364, "ELEMENT_SET_NO": 999, "REV_AT_EPOCH": 95482, "BSTAR": 0.0039205602, "MEAN_MOTION_DOT": 0.00013549, "MEAN_MOTION_DDOT": 0}, "tle": {"line1": "1 30364U 99025ACB 25335.53520515  .00013549  00000+0  39206-2 0  9998", "line2": "2 30364  98.1359 252.8044 0334548 352.9961 188.5388 14.16673291954829"}}, "geometry": {"type": "Point", "coordinates": [-105.47043836102202, -2.7853205084640567]}}, {"type": "Feature", "properties": {"norad_id": 30365, "name": "FENGYUN 1C DEB", "group": "fengyun-1c-debris", "lat": 70.13603496867316, "lon": 176.44677677341383, "alt_km": 717.6099168683868, "timestamp": "2025-12-02T23:34:15.792305+00:00", "meta": {"OBJECT_NAME": "FENGYUN 1C DEB", "OBJECT_ID": "1999-025ACC", "EPOCH": "2025-12-01T23:28:07.232736", "MEAN_MOTION": 14.19213525, "ECCENTRICITY": 0.01676698, "INCLINATION": 98.6186, "RA_OF_ASC_NODE": 330.648, "ARG_OF_PERICENTER": 142.3301, "MEAN_ANOMALY": 238.5262, "EPHEMERIS_TYPE": 0, "CLASSIFICATION_TYPE": "U", "NORAD_CAT_ID": 30365, "ELEMENT_SET_NO": 999, "REV_AT_EPOCH": 97460, "BSTAR": 0.00021469723, "MEAN_MOTION_DOT": 4.75e-06, "MEAN_MOTION_DDOT": 0}, "tle": {"line1": "1 30365U 99025ACC 25335.97786149  .00000475  00000+0  21470-3 0  9993", "line2": "2 30365  98.6186 330.6480 0167669 142.3301 238.5262 14.19213525974607"}}, "geometry": {"type": "Point", "coordinates": [176.44677677341383, 70.13603496867316]}}, {"type": "Feature", "properties": {"norad_id": 30366, "name": "FENGYUN 1C DEB", "group": "fengyun-1c-debris", "lat": 55.82617842612366, "lon": -119.208359319405, "alt_km": 818.3758004638403, "timestamp": "2025-12-02T23:34:15.792315+00:00", "meta": {"OBJECT_NAME": "FENGYUN 1C DEB", "OBJECT_ID": "1999-025ACD", "EPOCH": "2025-12-02T05:36:18.225792", "MEAN_MOTION": 14.33434811, "ECCENTRICITY": 0.0061992, "INCLINATION": 98.9223, "RA_OF_ASC_NODE": 253.3991, "ARG_OF_PERICENTER": 250.6397, "MEAN_ANOMALY": 265.3769, "EPHEMERIS_TYPE": 0, "CLASSIFICATION_TYPE": "U", "NORAD_CAT_ID": 30366, "ELEMENT_SET_NO": 999, "REV_AT_EPOCH": 98172, "BSTAR": 0.00072402, "MEAN_MOTION_DOT": 1.995e-05, "MEAN_MOTION_DDOT": 0}, "tle": {"line1": "1 30366U 99025ACD 25336.23354428  .00001995  00000+0  72402-3 0  9994", "line2": "2 30366  98.9223 253.3991 0061992 250.6397 265.3769 14.33434811981721"}}, "geometry": {"type": "Point", "coordinates": [-119.208359319405, 55.82617842612366]}}]}